GECAM-A                 
1 47234U 20094A   26058.13989985  .00002379  00000+0  17329-3 0  9993
2 47234  28.9961  20.3521 0010700 243.6219 116.3280 15.00334340285149
STARLINK-6097           
1 57105U 23090E   26068.84725253 -.00000367  00000+0 -12087-4 0  9999
2 57105  43.0042 274.0947 0001241 270.2312  89.8388 15.02533387150435
